COSMOS 2251 DEB
1 35602U 93036AMV 26177.57608272  .00020043  00000+0  40285-3 0  9997
2 35602  73.9922 117.9708 0071797 132.9012  42.6202 15.43738280931057
